GLOBALSTAR M045 [-]     
1 25676U 99019A   24080.55369156 -.00000094  00000+0 -69911-5 0  9993
2 25676  51.9959 158.1894 0000942  95.2760  12.9482 12.27032657137705
GLOBALSTAR M019 [-]     
1 25677U 99019B   24080.46112492  .00000051  00000+0  14739-2 0  9999
2 25677  51.9857 256.8985 0001870 109.6465 266.3082 12.13852788130044
GLOBALSTAR M044 [-]     
1 25678U 99019C   24080.53846553 -.00000090  00000+0 -88519-4 0  9994
2 25678  51.9955 151.2909 0006098 240.8613 227.5652 11.90229679117305
GLOBALSTAR M042 [-]     
1 25679U 99019D   24079.90203439 -.00000042  00000+0  47468-3 0  9997
2 25679  51.9994 253.3849 0003891  86.5447  61.2448 12.22057757129710
GLOBALSTAR M025 [-]     
1 25770U 99031A   24080.45117729 -.00000069  00000+0 -32622-4 0  9998
2 25770  51.9793 130.3773 0001749 119.3354 342.5966 11.22549609430751
GLOBALSTAR M049 [-]     
1 25771U 99031B   24080.53404979 -.00000045  00000+0  69473-3 0  9990
2 25771  51.9851 142.1507 0002508 334.7708  25.2965 11.12102209 66954
GLOBALSTAR M047 [-]     
1 25772U 99031C   24080.51139640 -.00000081  00000+0 -32531-3 0  9995
2 25772  51.9822 182.5131 0016634 201.4285 158.5826 11.31919233419737
GLOBALSTAR M052 [-]     
1 25773U 99031D   24080.43405156 -.00000082  00000+0 -55700-3 0  9999
2 25773  51.9844 257.4332 0003401 130.7808 240.4688 11.15049737427898
